ONEWEB-0534             
1 55797U 23029B   24028.70808453  .00000032  00000+0  45808-4 0  9993
2 55797  87.9166  87.7493 0002001 103.1434 256.9922 13.20770694 46249
ONEWEB-0556             
1 55798U 23029C   24028.63861370  .00000085  00000+0  17595-3 0  9992
2 55798  87.9164  87.7574 0002092 126.9335 233.1991 13.20770245 46235
ONEWEB-0562             
1 55799U 23029D   24028.70174485  .00000040  00000+0  66915-4 0  9997
2 55799  87.9167  87.7343 0001388 138.4286 221.6953 13.20770355 46246
ONEWEB-0563             
1 55800U 23029E   24028.69543556  .00000003  00000+0 -23537-4 0  9990
2 55800  87.9166  87.7505 0001955 110.7736 249.3607 13.20771024 46237
ONEWEB-0564             
1 55801U 23029F   24029.14364932  .00000071  00000+0  14309-3 0  9991
2 55801  87.9169  87.6449 0001412 106.1588 253.9701 13.20773009 47017
ONEWEB-0638             
1 55802U 23029G   24028.75783748 -.00000117  00000+0 -34968-3 0  9994
2 55802  87.8964 103.0141 0002316 117.3895 242.7470 13.14504158 45041
ONEWEB-0639             
1 55803U 23029H   24028.80676333  .00000099  00000+0  21426-3 0  9994
2 55803  87.9199 118.2347 0003265  95.8521 264.2984 13.19724005 44104
ONEWEB-0640             
1 55804U 23029J   24028.76735601 -.00000175  00000+0 -50553-3 0  9994
2 55804  87.8960 103.0116 0002626 117.8951 242.2445 13.14504091 45068
